[Satellite]
VERSION=1.1
NAME=NIMIQ 1
NICKNAME=NIMIQ 1
TLE1=1 25740U 99027A   17186.29977487 -.00000203  00000-0  00000-0 0  9997
TLE2=2 25740   0.0115  17.1343 0005275  65.9667 221.7850  1.00272524 66330
